[{"OBJECT_NAME":"SL-14 R/B","OBJECT_ID":"1986-006B","EPOCH":"2026-03-23T09:13:02.163648","MEAN_MOTION":14.86834824,"ECCENTRICITY":0.0075422,"INCLINATION":82.5241,"RA_OF_ASC_NODE":246.8448,"ARG_OF_PERICENTER":226.5535,"MEAN_ANOMALY":132.9392,"EPHEMERIS_TYPE":0,"CLASSIFICATION_TYPE":"U","NORAD_CAT_ID":16496,"ELEMENT_SET_NO":999,"REV_AT_EPOCH":15124,"BSTAR":8.6921e-5,"MEAN_MOTION_DOT":8.42e-6,"MEAN_MOTION_DDOT":0},{"OBJECT_NAME":"COSMOS 1743","OBJECT_ID":"1986-034A","EPOCH":"2026-03-23T07:30:50.009184","MEAN_MOTION":15.59625856,"ECCENTRICITY":0.0003198,"INCLINATION":82.5304,"RA_OF_ASC_NODE":59.5201,"ARG_OF_PERICENTER":189.9395,"MEAN_ANOMALY":170.1799,"EPHEMERIS_TYPE":0,"CLASSIFICATION_TYPE":"U","NORAD_CAT_ID":16719,"ELEMENT_SET_NO":999,"REV_AT_EPOCH":18237,"BSTAR":0.00051709,"MEAN_MOTION_DOT":0.00041343,"MEAN_MOTION_DDOT":0},{"OBJECT_NAME":"SL-14 R/B","OBJECT_ID":"1986-046B","EPOCH":"2026-03-23T09:54:42.825024","MEAN_MOTION":14.85603021,"ECCENTRICITY":0.0023068,"INCLINATION":82.4794,"RA_OF_ASC_NODE":67.2109,"ARG_OF_PERICENTER":178.7376,"MEAN_ANOMALY":181.3903,"EPHEMERIS_TYPE":0,"CLASSIFICATION_TYPE":"U","NORAD_CAT_ID":16792,"ELEMENT_SET_NO":999,"REV_AT_EPOCH":12844,"BSTAR":5.33e-5,"MEAN_MOTION_DOT":4.88e-6,"MEAN_MOTION_DDOT":0},{"OBJECT_NAME":"SL-14 R/B","OBJECT_ID":"1986-055B","EPOCH":"2026-03-23T13:26:24.256608","MEAN_MOTION":14.85654299,"ECCENTRICITY":0.0017386,"INCLINATION":82.5177,"RA_OF_ASC_NODE":113.6346,"ARG_OF_PERICENTER":287.7735,"MEAN_ANOMALY":225.6487,"EPHEMERIS_TYPE":0,"CLASSIFICATION_TYPE":"U","NORAD_CAT_ID":16882,"ELEMENT_SET_NO":999,"REV_AT_EPOCH":12142,"BSTAR":4.412e-5,"MEAN_MOTION_DOT":4.07e-6,"MEAN_MOTION_DDOT":0},{"OBJECT_NAME":"AJISAI (EGS)","OBJECT_ID":"1986-061A","EPOCH":"2026-03-23T12:57:18.245664","MEAN_MOTION":12.44515664,"ECCENTRICITY":0.0011316,"INCLINATION":50.01,"RA_OF_ASC_NODE":50.7568,"ARG_OF_PERICENTER":322.7298,"MEAN_ANOMALY":158.1979,"EPHEMERIS_TYPE":0,"CLASSIFICATION_TYPE":"U","NORAD_CAT_ID":16908,"ELEMENT_SET_NO":999,"REV_AT_EPOCH":46972,"BSTAR":-6.9906e-5,"MEAN_MOTION_DOT":-1.07e-6,"MEAN_MOTION_DDOT":0},{"OBJECT_NAME":"SL-14 R/B","OBJECT_ID":"1987-024B","EPOCH":"2026-03-23T10:35:36.146112","MEAN_MOTION":14.86144552,"ECCENTRICITY":0.0017333,"INCLINATION":82.5248,"RA_OF_ASC_NODE":79.8343,"ARG_OF_PERICENTER":210.9673,"MEAN_ANOMALY":149.0523,"EPHEMERIS_TYPE":0,"CLASSIFICATION_TYPE":"U","NORAD_CAT_ID":17567,"ELEMENT_SET_NO":999,"REV_AT_EPOCH":9017,"BSTAR":5.1177e-5,"MEAN_MOTION_DOT":4.74e-6,"MEAN_MOTION_DDOT":0},{"OBJECT_NAME":"COSMOS 1833","OBJECT_ID":"1987-027A","EPOCH":"2026-03-23T00:39:07.449120","MEAN_MOTION":14.130502,"ECCENTRICITY":0.00235683,"INCLINATION":70.9186,"RA_OF_ASC_NODE":297.9865,"ARG_OF_PERICENTER":195.171,"MEAN_ANOMALY":164.8707,"EPHEMERIS_TYPE":0,"CLASSIFICATION_TYPE":"U","NORAD_CAT_ID":17589,"ELEMENT_SET_NO":999,"REV_AT_EPOCH":1220,"BSTAR":-0.00011631786,"MEAN_MOTION_DOT":-2.66e-6,"MEAN_MOTION_DDOT":0},{"OBJECT_NAME":"SL-16 R/B","OBJECT_ID":"1987-027B","EPOCH":"2026-03-23T10:56:59.994816","MEAN_MOTION":14.17166019,"ECCENTRICITY":0.0002954,"INCLINATION":70.9994,"RA_OF_ASC_NODE":247.4826,"ARG_OF_PERICENTER":109.8217,"MEAN_ANOMALY":250.3225,"EPHEMERIS_TYPE":0,"CLASSIFICATION_TYPE":"U","NORAD_CAT_ID":17590,"ELEMENT_SET_NO":999,"REV_AT_EPOCH":1729,"BSTAR":-7.5567e-5,"MEAN_MOTION_DOT":-2.0e-6,"MEAN_MOTION_DDOT":0},{"OBJECT_NAME":"SL-14 R/B","OBJECT_ID":"1987-038B","EPOCH":"2026-03-23T12:15:32.610240","MEAN_MOTION":14.85380914,"ECCENTRICITY":0.0020611,"INCLINATION":82.498,"RA_OF_ASC_NODE":283.7846,"ARG_OF_PERICENTER":116.973,"MEAN_ANOMALY":243.3594,"EPHEMERIS_TYPE":0,"CLASSIFICATION_TYPE":"U","NORAD_CAT_ID":17912,"ELEMENT_SET_NO":999,"REV_AT_EPOCH":8128,"BSTAR":4.7308e-5,"MEAN_MOTION_DOT":4.33e-6,"MEAN_MOTION_DDOT":0},{"OBJECT_NAME":"COSMOS 1844","OBJECT_ID":"1987-041A","EPOCH":"2026-03-23T11:20:20.283936","MEAN_MOTION":14.14552855,"ECCENTRICITY":0.0030716,"INCLINATION":70.9012,"RA_OF_ASC_NODE":5.1048,"ARG_OF_PERICENTER":357.8242,"MEAN_ANOMALY":2.2741,"EPHEMERIS_TYPE":0,"CLASSIFICATION_TYPE":"U","NORAD_CAT_ID":17973,"ELEMENT_SET_NO":999,"REV_AT_EPOCH":553,"BSTAR":0.00014976,"MEAN_MOTION_DOT":2.4e-6,"MEAN_MOTION_DDOT":0},{"OBJECT_NAME":"SL-14 R/B","OBJECT_ID":"1987-055B","EPOCH":"2026-03-23T10:01:44.514912","MEAN_MOTION":14.85643213,"ECCENTRICITY":0.0019922,"INCLINATION":82.5017,"RA_OF_ASC_NODE":336.0957,"ARG_OF_PERICENTER":332.211,"MEAN_ANOMALY":27.804,"EPHEMERIS_TYPE":0,"CLASSIFICATION_TYPE":"U","NORAD_CAT_ID":18153,"ELEMENT_SET_NO":999,"REV_AT_EPOCH":7197,"BSTAR":5.1703e-5,"MEAN_MOTION_DOT":4.73e-6,"MEAN_MOTION_DDOT":0},{"OBJECT_NAME":"COSMOS 1867","OBJECT_ID":"1987-060A","EPOCH":"2026-03-23T04:53:44.439648","MEAN_MOTION":14.31505021,"ECCENTRICITY":0.00146962,"INCLINATION":65.0091,"RA_OF_ASC_NODE":268.8571,"ARG_OF_PERICENTER":279.4765,"MEAN_ANOMALY":80.4658,"EPHEMERIS_TYPE":0,"CLASSIFICATION_TYPE":"U","NORAD_CAT_ID":18187,"ELEMENT_SET_NO":999,"REV_AT_EPOCH":2187,"BSTAR":2.5457425e-5,"MEAN_MOTION_DOT":-3.2e-7,"MEAN_MOTION_DDOT":0},{"OBJECT_NAME":"SL-14 R/B","OBJECT_ID":"1988-001B","EPOCH":"2026-03-23T13:10:24.222144","MEAN_MOTION":14.85542769,"ECCENTRICITY":0.0017872,"INCLINATION":82.5163,"RA_OF_ASC_NODE":182.3291,"ARG_OF_PERICENTER":187.8398,"MEAN_ANOMALY":172.2542,"EPHEMERIS_TYPE":0,"CLASSIFICATION_TYPE":"U","NORAD_CAT_ID":18749,"ELEMENT_SET_NO":999,"REV_AT_EPOCH":4408,"BSTAR":5.6694e-5,"MEAN_MOTION_DOT":5.15e-6,"MEAN_MOTION_DDOT":0},{"OBJECT_NAME":"COSMOS 1933","OBJECT_ID":"1988-020A","EPOCH":"2026-03-23T08:51:06.422112","MEAN_MOTION":15.18108349,"ECCENTRICITY":0.0004981,"INCLINATION":82.5118,"RA_OF_ASC_NODE":237.3738,"ARG_OF_PERICENTER":139.7988,"MEAN_ANOMALY":220.3615,"EPHEMERIS_TYPE":0,"CLASSIFICATION_TYPE":"U","NORAD_CAT_ID":18958,"ELEMENT_SET_NO":999,"REV_AT_EPOCH":5230,"BSTAR":0.00027672,"MEAN_MOTION_DOT":5.674e-5,"MEAN_MOTION_DDOT":0},{"OBJECT_NAME":"SL-3 R/B","OBJECT_ID":"1988-032B","EPOCH":"2026-03-23T11:47:43.081440","MEAN_MOTION":15.20057747,"ECCENTRICITY":0.002576,"INCLINATION":97.5214,"RA_OF_ASC_NODE":65.6968,"ARG_OF_PERICENTER":181.6949,"MEAN_ANOMALY":178.4202,"EPHEMERIS_TYPE":0,"CLASSIFICATION_TYPE":"U","NORAD_CAT_ID":19046,"ELEMENT_SET_NO":999,"REV_AT_EPOCH":5420,"BSTAR":0.00025893,"MEAN_MOTION_DOT":5.564e-5,"MEAN_MOTION_DDOT":0},{"OBJECT_NAME":"SL-16 R/B","OBJECT_ID":"1988-039B","EPOCH":"2026-03-23T07:08:44.587392","MEAN_MOTION":14.19617713,"ECCENTRICITY":0.0023417,"INCLINATION":71.0157,"RA_OF_ASC_NODE":39.7714,"ARG_OF_PERICENTER":314.752,"MEAN_ANOMALY":45.1699,"EPHEMERIS_TYPE":0,"CLASSIFICATION_TYPE":"U","NORAD_CAT_ID":19120,"ELEMENT_SET_NO":999,"REV_AT_EPOCH":96031,"BSTAR":-1.1295e-5,"MEAN_MOTION_DOT":-7.2e-7,"MEAN_MOTION_DDOT":0},{"OBJECT_NAME":"COSMOS 1953","OBJECT_ID":"1988-050A","EPOCH":"2026-03-23T10:30:12.609216","MEAN_MOTION":15.28741216,"ECCENTRICITY":0.0012549,"INCLINATION":82.5082,"RA_OF_ASC_NODE":144.4192,"ARG_OF_PERICENTER":79.6553,"MEAN_ANOMALY":280.6101,"EPHEMERIS_TYPE":0,"CLASSIFICATION_TYPE":"U","NORAD_CAT_ID":19210,"ELEMENT_SET_NO":999,"REV_AT_EPOCH":3988,"BSTAR":0.00030551,"MEAN_MOTION_DOT":8.587e-5,"MEAN_MOTION_DDOT":0}]
